#aV2013  7  8  0  0  0.00000000     288 DD+AD WGS84 FIT  NGA
## 1748  86400.00000000   300.00000000 56481 0.0000000000000
+   31     1  2  3  4  5  6  7  8  9 10 11 12 13 14 15 16 17
+         18 19 20 21 22 23 24 25 26 27 28 29 31 32  0  0  0
+          0  0  0  0  0  0  0  0  0  0  0  0  0  0  0  0  0
+          0  0  0  0  0  0  0  0  0  0  0  0  0  0  0  0  0
+          0  0  0  0  0  0  0  0  0  0  0  0  0  0  0  0  0
++         2  2  2  2  2  2  2  2  2  2  2  2  2  2  2  2  2
++         2  2  2  2  2  2  2  2  2  2  2  2  2  2  2  0  0
++         0  0  0  0  0  0  0  0  0  0  0  0  0  0  0  0  0
++         0  0  0  0  0  0  0  0  0  0  0  0  0  0  0  0  0
++         0  0  0  0  0  0  0  0  0  0  0  0  0  0  0  0  0
%c cc cc ccc ccc cccc cccc cccc cccc ccccc ccccc ccccc ccccc
%c cc cc ccc ccc cccc cccc cccc cccc ccccc ccccc ccccc ccccc
%f  0.0000000  0.000000000  0.00000000000  0.000000000000000
%f  0.0000000  0.000000000  0.00000000000  0.000000000000000
%i    0    0    0    0      0      0      0      0         0
%i    0    0    0    0      0      0      0      0         0
/*      NGA, ST. LOUIS,MO.                                  
/*   EPHEMERIS COMPUTED FROM  1 DAYS OF DATA
/*   EPOCHA SMOOTHER  
/* CCCCCCCCCCCCCCCCCCCCCCCCCCCCCCCCCCCCCCCCCCCCCCCCCCCCCCCCC
*  2013  7  8 16 55  0.00000000                                                 
P  1   1522.875633 -16396.724111 -20837.978293     47.348706                    
V  1  24781.120224  -9262.685696   9201.320337      0.049348                    
P  2 -21700.139537  13879.623782   5469.268925    440.778732                    
V  2  -7751.873105   -757.085019 -30533.788923      0.018194                    
P  3   9168.390657 -20973.147491  12768.728079    230.102632                    
V  3   3395.602068  17163.150169  24956.626955      0.049023                    
P  4 -25425.442520   6052.641399  -5772.388350    266.865688                    
V  4   5187.051367  -5583.961322 -29918.746120      0.101706                    
P  5 -12219.620223   9963.692560  21362.293508   -398.300557                    
V  5 -21387.369840 -16834.097944  -4234.562405     -0.005342                    
P  6  13492.083567 -15055.048108  17104.084874    151.979328                    
V  6    787.458065  21887.680584  19098.022352     -0.175935                    
P  7 -14756.435024  -9010.109403  20295.383798    233.828787                    
V  7  23521.426366  -9977.380971  12397.560007      0.042419                    
P  8 -22883.005692  -2726.100203  13843.951184      7.263905                    
V  8  16199.418452  -5514.628731  25318.437109      0.001844                    
P  9 -24542.113770   3732.732290   8998.648189    253.099262                    
V  9  10476.486555  -6491.947302  29376.873483      0.025521                    
P 10 -22429.988852  -5697.524790  13100.080736    -86.239514                    
V 10 -11761.182049 -12519.467869 -24605.166484     -0.013588                    
P 11   6297.920789 -21104.978845 -15113.273356   -398.952668                    
V 11  16712.887792  -9254.736894  20771.464710     -0.034751                    
P 12   4170.228220  19055.822685 -18163.942288    143.678275                    
V 12 -18314.225909 -13693.736727 -18414.705951      0.021125                    
P 13  -6230.177190 -20087.786580  15999.713152    101.934985                    
V 13   6314.305653 -19652.997131 -22162.041430     -0.036786                    
P 14  14873.035822   1084.963974 -21768.567177    219.579687                    
V 14  -5422.677408  27570.328034  -2458.175710     -0.004011                    
P 15  -3038.300884  26238.931148    478.177948   -126.719620                    
V 15  -3596.355014  -1020.019382  31462.451280     -0.016673                    
P 16  12562.866320  -8347.983513  21866.560125   -250.448922                    
V 16  20976.428989  18129.234695  -4794.409018      0.004811                    
P 17 -14807.695363  -2354.675566 -21701.542671      1.098640                    
V 17   4678.071462 -27677.506081   -415.441177     -0.037094                    
P 18  20924.308415  16667.319884    640.103126    262.607493                    
V 18  -2434.568910   2644.705084  30743.869608      0.019830                    
P 19   8353.876094 -24653.585951   3845.536617   -387.223029                    
V 19   1868.959256   5621.979256  31590.746222     -0.029818                    
P 20  -9790.333454 -20036.897407 -14651.314758    108.162930                    
V 20  16689.439767   8156.362774 -22498.833463      0.022714                    
P 21  18456.015433   7224.413231  18486.807279   -307.294577                    
V 21 -19957.266330   9921.245621  16051.738710     -0.019873                    
P 22  23120.850976   8038.329566 -10286.079516    174.834277                    
V 22   8513.723515  10863.078680  26947.152351      0.015108                    
P 23  -1726.466065 -25214.196012   7533.993843     68.838464                    
V 23   4455.056462  -9032.419281 -29909.522164     -0.035478                    
P 24  -5668.404153  17205.932579 -19420.933519     -9.610828                    
V 24 -23215.808630   8405.710570  14272.166868     -0.006565                    
P 25  16078.869229  19460.840525  -8480.703542    119.516041                    
V 25  -9776.651562  -4726.989139 -29487.846434      0.050242                    
P 26 -12661.692470  19511.108593  11876.027056     87.942356                    
V 26   1376.303042 -16288.761695  27116.815649      0.165864                    
P 27  12379.674502 -18772.401380  14121.449635     -8.444692                    
V 27   -164.139758  18074.656032  24168.397490     -0.042136                    
P 28 -22086.235448 -12617.079486  -7363.207106    274.017166                    
V 28  -6343.128427  -8070.246231  30285.612411      0.032088                    
P 29   6320.053658  21339.853293  14576.446265    451.817040                    
V 29  -5194.876981  17752.538795 -23767.054148      0.032470                    
P 31  25470.073875  -6520.168187  -4546.143002    320.109775                    
V 31  -4837.329271   3940.466599 -31309.528290      0.011239                    
P 32    -89.055684 -18591.892186 -19028.804048   -558.557916                    
V 32  18764.331660  15488.531197 -14600.965624      0.006496                    
EOF
